$$SOE
2461302.500000000, A.D. 2026-Sep-19 00:00:00.0000, 3.018941296973287E+09, -7.628117605586846E+08, 1.589089152218911E+09,
2461309.500000000, A.D. 2026-Sep-26 00:00:00.0000, 3.020313923433385E+09, -7.593959000515969E+08, 1.591426249609943E+09,
2461316.500000000, A.D. 2026-Oct-03 00:00:00.0000, 3.021683144086469E+09, -7.559792295250552E+08, 1.593761538400858E+09,
2461323.500000000, A.D. 2026-Oct-10 00:00:00.0000, 3.023048961512240E+09, -7.525617560897863E+08, 1.596095018319659E+09,
2461330.500000000, A.D. 2026-Oct-17 00:00:00.0000, 3.024411378674150E+09, -7.491434869811440E+08, 1.598426689076684E+09,
2461337.500000000, A.D. 2026-Oct-24 00:00:00.0000, 3.025770398857518E+09, -7.457244295860710E+08, 1.600756550362393E+09,
2461344.500000000, A.D. 2026-Oct-31 00:00:00.0000, 3.027126025695882E+09, -7.423045916327876E+08, 1.603084601823119E+09,
2461351.500000000, A.D. 2026-Nov-07 00:00:00.0000, 3.028478263624607E+09, -7.388839814691133E+08, 1.605410842989901E+09,
2461358.500000000, A.D. 2026-Nov-14 00:00:00.0000, 3.029827118962663E+09, -7.354626075419986E+08, 1.607735273214702E+09,
2461365.500000000, A.D. 2026-Nov-21 00:00:00.0000, 3.031172599810791E+09, -7.320404763963934E+08, 1.610057891836139E+09,
2461372.500000000, A.D. 2026-Nov-28 00:00:00.0000, 3.032514713767998E+09, -7.286175922015164E+08, 1.612378698420696E+09,
2461379.500000000, A.D. 2026-Dec-05 00:00:00.0000, 3.033853467085876E+09, -7.251939584608477E+08, 1.614697692694100E+09,
2461386.500000000, A.D. 2026-Dec-12 00:00:00.0000, 3.035188865425709E+09, -7.217695787948742E+08, 1.617014874402263E+09,
2461393.500000000, A.D. 2026-Dec-19 00:00:00.0000, 3.036520914331084E+09, -7.183444567901446E+08, 1.619330243275652E+09,
2461400.500000000, A.D. 2026-Dec-26 00:00:00.0000, 3.037849619273568E+09, -7.149185957827296E+08, 1.621643799039460E+09,
2461407.500000000, A.D. 2027-Jan-02 00:00:00.0000, 3.039174985547052E+09, -7.114919987671025E+08, 1.623955541428818E+09,
2461414.500000000, A.D. 2027-Jan-09 00:00:00.0000, 3.040497018127073E+09, -7.080646684104593E+08, 1.626265470200119E+09,
2461421.500000000, A.D. 2027-Jan-16 00:00:00.0000, 3.041815721529404E+09, -7.046366071638656E+08, 1.628573585135989E+09,
2461428.500000000, A.D. 2027-Jan-23 00:00:00.0000, 3.043131099712503E+09, -7.012078175100725E+08, 1.630879886036490E+09,
2461435.500000000, A.D. 2027-Jan-30 00:00:00.0000, 3.044443156209939E+09, -6.977783023959591E+08, 1.633184372675375E+09,
2461442.500000000, A.D. 2027-Feb-06 00:00:00.0000, 3.045751894915880E+09, -6.943480655097456E+08, 1.635487044710157E+09,
2461449.500000000, A.D. 2027-Feb-13 00:00:00.0000, 3.047057321061780E+09, -6.909171101834133E+08, 1.637787901687745E+09,
2461456.500000000, A.D. 2027-Feb-20 00:00:00.0000, 3.048359440019064E+09, -6.874854377114370E+08, 1.640086943297634E+09,
2461463.500000000, A.D. 2027-Feb-27 00:00:00.0000, 3.049658255322774E+09, -6.840530482995428E+08, 1.642384169481802E+09,
2461470.500000000, A.D. 2027-Mar-06 00:00:00.0000, 3.050953768933680E+09, -6.806199427209394E+08, 1.644679580281403E+09,
2461477.500000000, A.D. 2027-Mar-13 00:00:00.0000, 3.052245982138314E+09, -6.771861226305578E+08, 1.646973175734329E+09,
2461484.500000000, A.D. 2027-Mar-20 00:00:00.0000, 3.053534895957356E+09, -6.737515903719579E+08, 1.649264955858836E+09,
2461491.500000000, A.D. 2027-Mar-27 00:00:00.0000, 3.054820511264351E+09, -6.703163488258260E+08, 1.651554920659705E+09,
2461498.500000000, A.D. 2027-Apr-03 00:00:00.0000, 3.056102828817639E+09, -6.668804013478167E+08, 1.653843070134313E+09,
2461505.500000000, A.D. 2027-Apr-10 00:00:00.0000, 3.057381849266752E+09, -6.634437517726650E+08, 1.656129404274821E+09,
2461512.500000000, A.D. 2027-Apr-17 00:00:00.0000, 3.058657573155346E+09, -6.600064044988847E+08, 1.658413923063217E+09,
2461519.500000000, A.D. 2027-Apr-24 00:00:00.0000, 3.059930000999893E+09, -6.565683647162125E+08, 1.660696626446867E+09,
2461526.500000000, A.D. 2027-May-01 00:00:00.0000, 3.061199133743740E+09, -6.531296387479889E+08, 1.662977514269339E+09,
2461533.500000000, A.D. 2027-May-08 00:00:00.0000, 3.062464973893967E+09, -6.496902337600750E+08, 1.665256586189500E+09,
2461540.500000000, A.D. 2027-May-15 00:00:00.0000, 3.063727525844133E+09, -6.462501558828837E+08, 1.667533841804087E+09,
2461547.500000000, A.D. 2027-May-22 00:00:00.0000, 3.064986793819081E+09, -6.428094093381139E+08, 1.669809280905441E+09,
2461554.500000000, A.D. 2027-May-29 00:00:00.0000, 3.066242780797698E+09, -6.393679980384507E+08, 1.672082903446682E+09,
2461561.500000000, A.D. 2027-Jun-05 00:00:00.0000, 3.067495489298495E+09, -6.359259265284832E+08, 1.674354709389199E+09,
2461568.500000000, A.D. 2027-Jun-12 00:00:00.0000, 3.068744922020457E+09, -6.324831998350446E+08, 1.676624698651961E+09,
2461575.500000000, A.D. 2027-Jun-19 00:00:00.0000, 3.069991082008164E+09, -6.290398231619780E+08, 1.678892871116774E+09,
2461582.500000000, A.D. 2027-Jun-26 00:00:00.0000, 3.071233972620572E+09, -6.255958016906555E+08, 1.681159226642659E+09,
2461589.500000000, A.D. 2027-Jul-03 00:00:00.0000, 3.072473597435610E+09, -6.221511404779410E+08, 1.683423765078121E+09,
2461596.500000000, A.D. 2027-Jul-10 00:00:00.0000, 3.073709960127422E+09, -6.187058444428835E+08, 1.685686486268902E+09,
2461603.500000000, A.D. 2027-Jul-17 00:00:00.0000, 3.074943064352597E+09, -6.152599184809912E+08, 1.687947390054935E+09,
2461610.500000000, A.D. 2027-Jul-24 00:00:00.0000, 3.076172913801830E+09, -6.118133677689030E+08, 1.690206476237293E+09,
2461617.500000000, A.D. 2027-Jul-31 00:00:00.0000, 3.077399512828426E+09, -6.083661980239344E+08, 1.692463744496840E+09,
2461624.500000000, A.D. 2027-Aug-07 00:00:00.0000, 3.078622867452941E+09, -6.049184145667772E+08, 1.694719194377326E+09,
2461631.500000000, A.D. 2027-Aug-14 00:00:00.0000, 3.079842984442825E+09, -6.014700204406598E+08, 1.696972825523361E+09,
2461638.500000000, A.D. 2027-Aug-21 00:00:00.0000, 3.081059869085305E+09, -5.980210169511473E+08, 1.699224637841701E+09,
2461645.500000000, A.D. 2027-Aug-28 00:00:00.0000, 3.082273525084548E+09, -5.945714054233756E+08, 1.701474631369424E+09,
2461652.500000000, A.D. 2027-Sep-04 00:00:00.0000, 3.083483955401974E+09, -5.911211876744001E+08, 1.703722806161743E+09,
2461659.500000000, A.D. 2027-Sep-11 00:00:00.0000, 3.084691162644396E+09, -5.876703658619699E+08, 1.705969162273145E+09,
2461666.500000000, A.D. 2027-Sep-18 00:00:00.0000, 3.085895149133173E+09, -5.842189423597984E+08, 1.708213699766297E+09,
2461673.500000000, A.D. 2027-Sep-25 00:00:00.0000, 3.087095916883243E+09, -5.807669197367314E+08, 1.710456418721097E+09,
2461680.500000000, A.D. 2027-Oct-02 00:00:00.0000, 3.088293467567094E+09, -5.773143008119130E+08, 1.712697319238979E+09,
2461687.500000000, A.D. 2027-Oct-09 00:00:00.0000, 3.089487802486193E+09, -5.738610887900584E+08, 1.714936401439799E+09,
2461694.500000000, A.D. 2027-Oct-16 00:00:00.0000, 3.090678922613137E+09, -5.704072875312886E+08, 1.717173665440789E+09,
2461701.500000000, A.D. 2027-Oct-23 00:00:00.0000, 3.091866828964548E+09, -5.669529019608305E+08, 1.719409111293091E+09,
2461708.500000000, A.D. 2027-Oct-30 00:00:00.0000, 3.093051523679534E+09, -5.634979380078943E+08, 1.721642738891238E+09,
2461715.500000000, A.D. 2027-Nov-06 00:00:00.0000, 3.094233010640418E+09, -5.600424009453135E+08, 1.723874548054397E+09,
2461722.500000000, A.D. 2027-Nov-13 00:00:00.0000, 3.095411293650360E+09, -5.565862942059283E+08, 1.726104538791699E+09,
2461729.500000000, A.D. 2027-Nov-20 00:00:00.0000, 3.096586375069804E+09, -5.531296208614143E+08, 1.728332711306890E+09,
2461736.500000000, A.D. 2027-Nov-27 00:00:00.0000, 3.097758256529332E+09, -5.496723847989801E+08, 1.730559065836208E+09,
2461743.500000000, A.D. 2027-Dec-04 00:00:00.0000, 3.098926939695404E+09, -5.462145906819179E+08, 1.732783602579828E+09,
2461750.500000000, A.D. 2027-Dec-11 00:00:00.0000, 3.100092426538400E+09, -5.427562436579005E+08, 1.735006321698622E+09,
2461757.500000000, A.D. 2027-Dec-18 00:00:00.0000, 3.101254719377952E+09, -5.392973491540248E+08, 1.737227223323393E+09,
2461764.500000000, A.D. 2027-Dec-25 00:00:00.0000, 3.102413820857554E+09, -5.358379127606677E+08, 1.739446307562551E+09,
2461771.500000000, A.D. 2028-Jan-01 00:00:00.0000, 3.103569733889874E+09, -5.323779401894513E+08, 1.741663574505733E+09,
$$EOE